{
  "links" : {
    "next" : "https://api.nasa.gov/neo/rest/v1/feed?start_date=1999-01-23&end_date=1999-01-23&detailed=true&api_key=t0TVs3DtDT2H8Oy2Zy8m2eVrNsAVKAexjcZXUckd",
    "prev" : "https://api.nasa.gov/neo/rest/v1/feed?start_date=1999-01-21&end_date=1999-01-21&detailed=true&api_key=t0TVs3DtDT2H8Oy2Zy8m2eVrNsAVKAexjcZXUckd",
    "self" : "https://api.nasa.gov/neo/rest/v1/feed?start_date=1999-01-22&end_date=1999-01-22&detailed=true&api_key=t0TVs3DtDT2H8Oy2Zy8m2eVrNsAVKAexjcZXUckd"
  },
  "element_count" : 5,
  "near_earth_objects" : {
    "1999-01-22" : [ {
      "links" : {
        "self" : "https://api.nasa.gov/neo/rest/v1/neo/2468541?api_key=t0TVs3DtDT2H8Oy2Zy8m2eVrNsAVKAexjcZXUckd"
      },
      "neo_reference_id" : "2468541",
      "name" : "468541 (2006 QA31)",
      "nasa_jpl_url" : "http://ssd.jpl.nasa.gov/sbdb.cgi?sstr=2468541",
      "absolute_magnitude_h" : 20.2,
      "estimated_diameter" : {
        "kilometers" : {
          "estimated_diameter_min" : 0.2424124811,
          "estimated_diameter_max" : 0.5420507863
        },
        "meters" : {
          "estimated_diameter_min" : 242.4124811008,
          "estimated_diameter_max" : 542.0507863358
        },
        "miles" : {
          "estimated_diameter_min" : 0.1506280858,
          "estimated_diameter_max" : 0.3368146392
        },
        "feet" : {
          "estimated_diameter_min" : 795.3165644948,
          "estimated_diameter_max" : 1778.3819018419
        }
      },
      "is_potentially_hazardous_asteroid" : false,
      "close_approach_data" : [ {
        "close_approach_date" : "1999-01-22",
        "epoch_date_close_approach" : 916992000000,
        "relative_velocity" : {
          "kilometers_per_second" : "14.991845231",
          "kilometers_per_hour" : "53970.6428316968",
          "miles_per_hour" : "33535.2585972841"
        },
        "miss_distance" : {
          "astronomical" : "0.3189357278",
          "lunar" : "124.0659942627",
          "kilometers" : "47712104",
          "miles" : "29646928"
        },
        "orbiting_body" : "Earth"
      } ],
      "orbital_data" : {
        "orbit_id" : "38",
        "orbit_determination_date" : "2017-04-06 09:19:21",
        "orbit_uncertainty" : "0",
        "minimum_orbit_intersection" : ".204647",
        "jupiter_tisserand_invariant" : "5.179",
        "epoch_osculation" : "2458000.5",
        "eccentricity" : ".4576443419966263",
        "semi_major_axis" : "1.1978249413423",
        "inclination" : "11.85555483647135",
        "ascending_node_longitude" : "95.85523895970015",
        "orbital_period" : "478.837830641704",
        "perihelion_distance" : ".6496471342345557",
        "perihelion_argument" : "358.5717973043074",
        "aphelion_distance" : "1.746002748450044",
        "perihelion_time" : "2457890.861568865834",
        "mean_anomaly" : "82.42839784693919",
        "mean_motion" : ".7518202969000045",
        "equinox" : "J2000"
      }
    }, {
      "links" : {
        "self" : "https://api.nasa.gov/neo/rest/v1/neo/3401904?api_key=t0TVs3DtDT2H8Oy2Zy8m2eVrNsAVKAexjcZXUckd"
      },
      "neo_reference_id" : "3401904",
      "name" : "(2008 CE5)",
      "nasa_jpl_url" : "http://ssd.jpl.nasa.gov/sbdb.cgi?sstr=3401904",
      "absolute_magnitude_h" : 21.0,
      "estimated_diameter" : {
        "kilometers" : {
          "estimated_diameter_min" : 0.1677084622,
          "estimated_diameter_max" : 0.3750075218
        },
        "meters" : {
          "estimated_diameter_min" : 167.7084621628,
          "estimated_diameter_max" : 375.0075217981
        },
        "miles" : {
          "estimated_diameter_min" : 0.1042091748,
          "estimated_diameter_max" : 0.2330187988
        },
        "feet" : {
          "estimated_diameter_min" : 550.2246310023,
          "estimated_diameter_max" : 1230.3396778159
        }
      },
      "is_potentially_hazardous_asteroid" : false,
      "close_approach_data" : [ {
        "close_approach_date" : "1999-01-22",
        "epoch_date_close_approach" : 916992000000,
        "relative_velocity" : {
          "kilometers_per_second" : "17.7646841106",
          "kilometers_per_hour" : "63952.8627981035",
          "miles_per_hour" : "39737.821886966"
        },
        "miss_distance" : {
          "astronomical" : "0.4544676471",
          "lunar" : "176.7879180908",
          "kilometers" : "67987392",
          "miles" : "42245408"
        },
        "orbiting_body" : "Earth"
      } ],
      "orbital_data" : {
        "orbit_id" : "15",
        "orbit_determination_date" : "2017-04-06 09:04:31",
        "orbit_uncertainty" : "1",
        "minimum_orbit_intersection" : ".177776",
        "jupiter_tisserand_invariant" : "5.419",
        "epoch_osculation" : "2458000.5",
        "eccentricity" : ".6628887604527036",
        "semi_major_axis" : "1.082874208199716",
        "inclination" : "25.96240641711521",
        "ascending_node_longitude" : "137.0258257824893",
        "orbital_period" : "411.5905942735363",
        "perihelion_distance" : ".3650490666000034",
        "perihelion_argument" : "208.8306404406201",
        "aphelion_distance" : "1.800699349799429",
        "perihelion_time" : "2458108.129844123303",
        "mean_anomaly" : "265.860958866716",
        "mean_motion" : ".874655555808814",
        "equinox" : "J2000"
      }
    } ]
  }
}